{
   "type": "FeatureCollection",
   "features": [
  {
    "type": "Feature",
    "geometry": {
       "type": "Point",
       "coordinates":  [ -71.082113,42.381369 ]
    },
    "properties": {
    "Address":"30 WASHINGTON ST",
    "City":"Somerville",
    "State":"MA",
    "Zip":2143
    }
  },
  {
    "type": "Feature",
    "geometry": {
       "type": "Point",
       "coordinates":  [ -71.078189,42.386009 ]
    },
    "properties": {
    "Address":"14 BROADWAY",
    "City":"Somerville",
    "State":"MA",
    "Zip":2145
    }
  },
  {
    "type": "Feature",
    "geometry": {
       "type": "Point",
       "coordinates":  [ -71.120043,42.394014 ]
    },
    "properties": {
    "Address":"371 SUMMER ST",
    "City":"Somerville",
    "State":"MA",
    "Zip":2143
    }
  },
  {
    "type": "Feature",
    "geometry": {
       "type": "Point",
       "coordinates":  [ -71.091472,42.377954 ]
    },
    "properties": {
    "Address":"218 SOMERVILLE AVE",
    "City":"Somerville",
    "State":"MA",
    "Zip":2143
    }
  },
  {
    "type": "Feature",
    "geometry": {
       "type": "Point",
       "coordinates":  [ -71.109393,42.398673 ]
    },
    "properties": {
    "Address":"616 BROADWAY",
    "City":"Somerville",
    "State":"MA",
    "Zip":2143
    }
  },
  {
    "type": "Feature",
    "geometry": {
       "type": "Point",
       "coordinates":  [ -71.08053,42.393024 ]
    },
    "properties": {
    "Address":"130R FOLEY ST",
    "City":"Somerville",
    "State":"MA",
    "Zip":2143
    }
  },
  {
    "type": "Feature",
    "geometry": {
       "type": "Point",
       "coordinates":  [ -71.100505,42.374567 ]
    },
    "properties": {
    "Address":"26 SPRINGFIELD ST",
    "City":"Somerville",
    "State":"MA",
    "Zip":2143
    }
  },
  {
    "type": "Feature",
    "geometry": {
       "type": "Point",
       "coordinates":  [ -71.080766,42.380857 ]
    },
    "properties": {
    "Address":"20 INNERBELT RD",
    "City":"Somerville",
    "State":"MA",
    "Zip":2143
    }
  },
  {
    "type": "Feature",
    "geometry": {
       "type": "Point",
       "coordinates":  [ -71.08852,42.374756 ]
    },
    "properties": {
    "Address":"46 MEDFORD ST",
    "City":"Somerville",
    "State":"MA",
    "Zip":2143
    }
  },
  {
    "type": "Feature",
    "geometry": {
       "type": "Point",
       "coordinates":  [ -71.122948,42.397354 ]
    },
    "properties": {
    "Address":"17-27 HOLLAND ST",
    "City":"Somerville",
    "State":"MA",
    "Zip":2144
    }
  },
  {
    "type": "Feature",
    "geometry": {
       "type": "Point",
       "coordinates":  [ -71.12148,42.395089 ]
    },
    "properties": {
    "Address":"237A ELM ST",
    "City":"Somerville",
    "State":"MA",
    "Zip":2144
    }
  },
  {
    "type": "Feature",
    "geometry": {
       "type": "Point",
       "coordinates":  [ -71.120032,42.405522 ]
    },
    "properties": {
    "Address":"44 PROFESSORS ROW",
    "City":"Somerville",
    "State":"MA",
    "Zip":2143
    }
  },
  {
    "type": "Feature",
    "geometry": {
       "type": "Point",
       "coordinates":  [ -71.089738,42.378615 ]
    },
    "properties": {
    "Address":"282-284 MCGRATH HWY",
    "City":"Somerville",
    "State":"MA",
    "Zip":2143
    }
  },
  {
    "type": "Feature",
    "geometry": {
       "type": "Point",
       "coordinates":  [ -71.122046,42.39617 ]
    },
    "properties": {
    "Address":"8-9 DAVIS SQ ",
    "City":"Somerville",
    "State":"MA",
    "Zip":2144
    }
  },
  {
    "type": "Feature",
    "geometry": {
       "type": "Point",
       "coordinates":  [ -71.098525,42.380836 ]
    },
    "properties": {
    "Address":"345-345B SOMERVILLE AVE",
    "City":"Somerville",
    "State":"MA",
    "Zip":2145
    }
  },
  {
    "type": "Feature",
    "geometry": {
       "type": "Point",
       "coordinates":  [ -71.106912,42.378186 ]
    },
    "properties": {
    "Address":"421-427 WASHINGTON ST",
    "City":"Somerville",
    "State":"MA",
    "Zip":2144
    }
  },
  {
    "type": "Feature",
    "geometry": {
       "type": "Point",
       "coordinates":  [ -71.085876,42.381569 ]
    },
    "properties": {
    "Address":"97 WASHINGTON ST ",
    "City":"Somerville",
    "State":"MA",
    "Zip":2143
    }
  },
  {
    "type": "Feature",
    "geometry": {
       "type": "Point",
       "coordinates":  [ -71.121741,42.39545 ]
    },
    "properties": {
    "Address":"247 ELM ST",
    "City":"Somerville",
    "State":"MA",
    "Zip":2144
    }
  },
  {
    "type": "Feature",
    "geometry": {
       "type": "Point",
       "coordinates":  [ -71.122284,42.395533 ]
    },
    "properties": {
    "Address":"256 ELM ST ",
    "City":"Somerville",
    "State":"MA",
    "Zip":2144
    }
  },
  {
    "type": "Feature",
    "geometry": {
       "type": "Point",
       "coordinates":  [ -71.086253,42.389083 ]
    },
    "properties": {
    "Address":"171-173 BROADWAY",
    "City":"Somerville",
    "State":"MA",
    "Zip":2143
    }
  },
  {
    "type": "Feature",
    "geometry": {
       "type": "Point",
       "coordinates":  [ -71.104396,42.376424 ]
    },
    "properties": {
    "Address":"70-70B BEACON ST",
    "City":"Somerville",
    "State":"MA",
    "Zip":2143
    }
  },
  {
    "type": "Feature",
    "geometry": {
       "type": "Point",
       "coordinates":  [ -71.12237,42.395232 ]
    },
    "properties": {
    "Address":"55-57 CHESTER ST",
    "City":"Somerville",
    "State":"MA",
    "Zip":2144
    }
  },
  {
    "type": "Feature",
    "geometry": {
       "type": "Point",
       "coordinates":  [ -71.126746,42.402775 ]
    },
    "properties": {
    "Address":"239-241 HOLLAND ST",
    "City":"Somerville",
    "State":"MA",
    "Zip":2144
    }
  },
  {
    "type": "Feature",
    "geometry": {
       "type": "Point",
       "coordinates":  [ -71.097258,42.381573 ]
    },
    "properties": {
    "Address":"25 BOW ST",
    "City":"Somerville",
    "State":"MA",
    "Zip":2143
    }
  },
  {
    "type": "Feature",
    "geometry": {
       "type": "Point",
       "coordinates":  [ -71.096804,42.379857 ]
    },
    "properties": {
    "Address":"23 UNION SQ",
    "City":"Somerville",
    "State":"MA",
    "Zip":2144
    }
  },
  {
    "type": "Feature",
    "geometry": {
       "type": "Point",
       "coordinates":  [ -71.123695,42.398386 ]
    },
    "properties": {
    "Address":"57-65 HOLLAND ST",
    "City":"Somerville",
    "State":"MA",
    "Zip":2144
    }
  },
  {
    "type": "Feature",
    "geometry": {
       "type": "Point",
       "coordinates":  [ -71.126926,42.402077 ]
    },
    "properties": {
    "Address":"212 HOLLAND ST",
    "City":"Somerville",
    "State":"MA",
    "Zip":2144
    }
  },
  {
    "type": "Feature",
    "geometry": {
       "type": "Point",
       "coordinates":  [ -71.117509,42.400698 ]
    },
    "properties": {
    "Address":"858 BROADWAY",
    "City":"Somerville",
    "State":"MA",
    "Zip":2144
    }
  },
  {
    "type": "Feature",
    "geometry": {
       "type": "Point",
       "coordinates":  [ -71.090073,42.380313 ]
    },
    "properties": {
    "Address":"157 WASHINGTON ST",
    "City":"Somerville",
    "State":"MA",
    "Zip":2143
    }
  },
  {
    "type": "Feature",
    "geometry": {
       "type": "Point",
       "coordinates":  [ -71.090832,42.378163 ]
    },
    "properties": {
    "Address":"203 AVE",
    "City":"Somerville",
    "State":"MA",
    "Zip":2143
    }
  },
  {
    "type": "Feature",
    "geometry": {
       "type": "Point",
       "coordinates":  [ -71.122159,42.395288 ]
    },
    "properties": {
    "Address":"246 ELM ST",
    "City":"Somerville",
    "State":"MA",
    "Zip":2144
    }
  },
  {
    "type": "Feature",
    "geometry": {
       "type": "Point",
       "coordinates":  [ -71.097997,42.38078 ]
    },
    "properties": {
    "Address":"335 SOMERVILLE AVE",
    "City":"Somerville",
    "State":"MA",
    "Zip":2145
    }
  },
  {
    "type": "Feature",
    "geometry": {
       "type": "Point",
       "coordinates":  [ -71.094837,42.379795 ]
    },
    "properties": {
    "Address":"75 UNION SQ",
    "City":"Somerville",
    "State":"MA",
    "Zip":2143
    }
  },
  {
    "type": "Feature",
    "geometry": {
       "type": "Point",
       "coordinates":  [ -71.112452,42.38302 ]
    },
    "properties": {
    "Address":"282 BEACON ST",
    "City":"Somerville",
    "State":"MA",
    "Zip":2143
    }
  },
  {
    "type": "Feature",
    "geometry": {
       "type": "Point",
       "coordinates":  [ -71.104736,42.397673 ]
    },
    "properties": {
    "Address":"499 BROADWAY",
    "City":"Somerville",
    "State":"MA",
    "Zip":2145
    }
  },
  {
    "type": "Feature",
    "geometry": {
       "type": "Point",
       "coordinates":  [ -71.1041,42.396633 ]
    },
    "properties": {
    "Address":"518 MEDFORD ST ",
    "City":"Somerville",
    "State":"MA",
    "Zip":2145
    }
  },
  {
    "type": "Feature",
    "geometry": {
       "type": "Point",
       "coordinates":  [ -71.109575,42.383781 ]
    },
    "properties": {
    "Address":"596-608 SOMERVILLE AVE",
    "City":"Somerville",
    "State":"MA",
    "Zip":2143
    }
  },
  {
    "type": "Feature",
    "geometry": {
       "type": "Point",
       "coordinates":  [ -71.096827,42.37991 ]
    },
    "properties": {
    "Address":"25 UNION SQ",
    "City":"Somerville",
    "State":"MA",
    "Zip":2143
    }
  },
  {
    "type": "Feature",
    "geometry": {
       "type": "Point",
       "coordinates":  [ -71.084286,42.393842 ]
    },
    "properties": {
    "Address":"20 CUMMINGS ST",
    "City":"Somerville",
    "State":"MA",
    "Zip":2145
    }
  },
  {
    "type": "Feature",
    "geometry": {
       "type": "Point",
       "coordinates":  [ -71.095596,42.379913 ]
    },
    "properties": {
    "Address":"61 UNION SQ",
    "City":"Somerville",
    "State":"MA",
    "Zip":2143
    }
  },
  {
    "type": "Feature",
    "geometry": {
       "type": "Point",
       "coordinates":  [ -71.106069,42.383156 ]
    },
    "properties": {
    "Address":"517-520 SOMERVILLE AVE",
    "City":"Somerville",
    "State":"MA",
    "Zip":2143
    }
  },
  {
    "type": "Feature",
    "geometry": {
       "type": "Point",
       "coordinates":  [ -71.095037,42.37998 ]
    },
    "properties": {
    "Address":"70 UNION SQ",
    "City":"Somerville",
    "State":"MA",
    "Zip":2143
    }
  },
  {
    "type": "Feature",
    "geometry": {
       "type": "Point",
       "coordinates":  [ -71.084839,42.388405 ]
    },
    "properties": {
    "Address":"145-147 BROADWAY",
    "City":"Somerville",
    "State":"MA",
    "Zip":2145
    }
  },
  {
    "type": "Feature",
    "geometry": {
       "type": "Point",
       "coordinates":  [ -71.097383,42.380545 ]
    },
    "properties": {
    "Address":"307 SOMERVILLE AVE",
    "City":"Somerville",
    "State":"MA",
    "Zip":2144
    }
  },
  {
    "type": "Feature",
    "geometry": {
       "type": "Point",
       "coordinates":  [ -71.123074,42.39672 ]
    },
    "properties": {
    "Address":"55 DAVIS SQ ",
    "City":"Somerville",
    "State":"MA",
    "Zip":2144
    }
  },
  {
    "type": "Feature",
    "geometry": {
       "type": "Point",
       "coordinates":  [ -71.127234,42.40303 ]
    },
    "properties": {
    "Address":"248-250 HOLLAND ST",
    "City":"Somerville",
    "State":"MA",
    "Zip":2144
    }
  },
  {
    "type": "Feature",
    "geometry": {
       "type": "Point",
       "coordinates":  [ -71.094108,42.379607 ]
    },
    "properties": {
    "Address":"241 WASHINGTON ST ",
    "City":"Somerville",
    "State":"MA",
    "Zip":2143
    }
  },
  {
    "type": "Feature",
    "geometry": {
       "type": "Point",
       "coordinates":  [ -71.112435,42.399765 ]
    },
    "properties": {
    "Address":"704-706 BROADWAY",
    "City":"Somerville",
    "State":"MA",
    "Zip":2144
    }
  },
  {
    "type": "Feature",
    "geometry": {
       "type": "Point",
       "coordinates":  [ -71.11098,42.398853 ]
    },
    "properties": {
    "Address":"148-150 HIGHLAND AVE",
    "City":"Somerville",
    "State":"MA",
    "Zip":2144
    }
  },
  {
    "type": "Feature",
    "geometry": {
       "type": "Point",
       "coordinates":  [ -71.111369,42.399246 ]
    },
    "properties": {
    "Address":"158 BOSTON AVE",
    "City":"Somerville",
    "State":"MA",
    "Zip":2144
    }
  },
  {
    "type": "Feature",
    "geometry": {
       "type": "Point",
       "coordinates":  [ -71.101528,42.374534 ]
    },
    "properties": {
    "Address":"3 BEACON ST",
    "City":"Somerville",
    "State":"MA",
    "Zip":2143
    }
  },
  {
    "type": "Feature",
    "geometry": {
       "type": "Point",
       "coordinates":  [ -71.120944,42.394568 ]
    },
    "properties": {
    "Address":"215 ELM ST ",
    "City":"Somerville",
    "State":"MA",
    "Zip":2144
    }
  },
  {
    "type": "Feature",
    "geometry": {
       "type": "Point",
       "coordinates":  [ -71.123821,42.395746 ]
    },
    "properties": {
    "Address":"45 DAY ST",
    "City":"Somerville",
    "State":"MA",
    "Zip":2144
    }
  },
  {
    "type": "Feature",
    "geometry": {
       "type": "Point",
       "coordinates":  [ -71.09464,42.379672 ]
    },
    "properties": {
    "Address":"9 SANBORN CT",
    "City":"Somerville",
    "State":"MA",
    "Zip":2143
    }
  },
  {
    "type": "Feature",
    "geometry": {
       "type": "Point",
       "coordinates":  [ -71.099961,42.381427 ]
    },
    "properties": {
    "Address":"79 BOW ST",
    "City":"Somerville",
    "State":"MA",
    "Zip":2143
    }
  },
  {
    "type": "Feature",
    "geometry": {
       "type": "Point",
       "coordinates":  [ -71.111722,42.399619 ]
    },
    "properties": {
    "Address":"682-686 BROADWAY",
    "City":"Somerville",
    "State":"MA",
    "Zip":2144
    }
  },
  {
    "type": "Feature",
    "geometry": {
       "type": "Point",
       "coordinates":  [ -71.099445,42.380978 ]
    },
    "properties": {
    "Address":"366A SOMERVILLE AVE",
    "City":"Somerville",
    "State":"MA",
    "Zip":2143
    }
  },
  {
    "type": "Feature",
    "geometry": {
       "type": "Point",
       "coordinates":  [ -71.106281,42.378011 ]
    },
    "properties": {
    "Address":"118 BEACON ST",
    "City":"Somerville",
    "State":"MA",
    "Zip":2143
    }
  },
  {
    "type": "Feature",
    "geometry": {
       "type": "Point",
       "coordinates":  [ -71.106748,42.378407 ]
    },
    "properties": {
    "Address":"415 WASHINGTON ST ",
    "City":"Somerville",
    "State":"MA",
    "Zip":2143
    }
  },
  {
    "type": "Feature",
    "geometry": {
       "type": "Point",
       "coordinates":  [ -71.127338,42.403479 ]
    },
    "properties": {
    "Address":"1153 BROADWAY",
    "City":"Somerville",
    "State":"MA",
    "Zip":2143
    }
  },
  {
    "type": "Feature",
    "geometry": {
       "type": "Point",
       "coordinates":  [ -71.105992,42.389688 ]
    },
    "properties": {
    "Address":"191 HIGHLAND AVE",
    "City":"Somerville",
    "State":"MA",
    "Zip":2143
    }
  },
  {
    "type": "Feature",
    "geometry": {
       "type": "Point",
       "coordinates":  [ -71.097365,42.380843 ]
    },
    "properties": {
    "Address":"22 BOW ST",
    "City":"Somerville",
    "State":"MA",
    "Zip":2143
    }
  },
  {
    "type": "Feature",
    "geometry": {
       "type": "Point",
       "coordinates":  [ -71.122844,42.397125 ]
    },
    "properties": {
    "Address":"7 HOLLAND ST",
    "City":"Somerville",
    "State":"MA",
    "Zip":2144
    }
  },
  {
    "type": "Feature",
    "geometry": {
       "type": "Point",
       "coordinates":  [ -71.122303,42.396912 ]
    },
    "properties": {
    "Address":"37 DAVIS SQ",
    "City":"Somerville",
    "State":"MA",
    "Zip":2144
    }
  },
  {
    "type": "Feature",
    "geometry": {
       "type": "Point",
       "coordinates":  [ -71.126728,42.40319 ]
    },
    "properties": {
    "Address":"1127 BROADWAY",
    "City":"Somerville",
    "State":"MA",
    "Zip":2144
    }
  },
  {
    "type": "Feature",
    "geometry": {
       "type": "Point",
       "coordinates":  [ -71.120862,42.395677 ]
    },
    "properties": {
    "Address":"400 HIGHLAND AVE",
    "City":"Somerville",
    "State":"MA",
    "Zip":2144
    }
  },
  {
    "type": "Feature",
    "geometry": {
       "type": "Point",
       "coordinates":  [ -71.121106,42.394586 ]
    },
    "properties": {
    "Address":"219 ELM ST",
    "City":"Somerville",
    "State":"MA",
    "Zip":2144
    }
  },
  {
    "type": "Feature",
    "geometry": {
       "type": "Point",
       "coordinates":  [ -71.094421,42.379835 ]
    },
    "properties": {
    "Address":"253 WASHINGTON ST",
    "City":"Somerville",
    "State":"MA",
    "Zip":2143
    }
  },
  {
    "type": "Feature",
    "geometry": {
       "type": "Point",
       "coordinates":  [ -71.081734,42.386785 ]
    },
    "properties": {
    "Address":"76 BROADWAY ",
    "City":"Somerville",
    "State":"MA",
    "Zip":2145
    }
  },
  {
    "type": "Feature",
    "geometry": {
       "type": "Point",
       "coordinates":  [ -71.12188,42.396168 ]
    },
    "properties": {
    "Address":"420 HIGHLAND AVE",
    "City":"Somerville",
    "State":"MA",
    "Zip":2144
    }
  },
  {
    "type": "Feature",
    "geometry": {
       "type": "Point",
       "coordinates":  [ -71.079302,42.395141 ]
    },
    "properties": {
    "Address":"395 ARTISAN WAY",
    "City":"Somerville",
    "State":"MA",
    "Zip":2145
    }
  },
  {
    "type": "Feature",
    "geometry": {
       "type": "Point",
       "coordinates":  [ -71.103821,42.396888 ]
    },
    "properties": {
    "Address":"525-527 MEDFORD ST",
    "City":"Somerville",
    "State":"MA",
    "Zip":2145
    }
  },
  {
    "type": "Feature",
    "geometry": {
       "type": "Point",
       "coordinates":  [ -71.094383,42.379939 ]
    },
    "properties": {
    "Address":"255 WASHINGTON ST ",
    "City":"Somerville",
    "State":"MA",
    "Zip":2143
    }
  },
  {
    "type": "Feature",
    "geometry": {
       "type": "Point",
       "coordinates":  [ -71.084559,42.387863 ]
    },
    "properties": {
    "Address":"124 BROADWAY",
    "City":"Somerville",
    "State":"MA",
    "Zip":2145
    }
  },
  {
    "type": "Feature",
    "geometry": {
       "type": "Point",
       "coordinates":  [ -71.094717,42.378953 ]
    },
    "properties": {
    "Address":"290 SOMERVILLE AVE",
    "City":"Somerville",
    "State":"MA",
    "Zip":2143
    }
  },
  {
    "type": "Feature",
    "geometry": {
       "type": "Point",
       "coordinates":  [ -71.126674,42.402723 ]
    },
    "properties": {
    "Address":"237 HOLLAND ST",
    "City":"Somerville",
    "State":"MA",
    "Zip":2144
    }
  },
  {
    "type": "Feature",
    "geometry": {
       "type": "Point",
       "coordinates":  [ -71.119417,42.3951 ]
    },
    "properties": {
    "Address":"382 HIGHLAND AVE",
    "City":"Somerville",
    "State":"MA",
    "Zip":2144
    }
  },
  {
    "type": "Feature",
    "geometry": {
       "type": "Point",
       "coordinates":  [ -71.078077,42.389573 ]
    },
    "properties": {
    "Address":"702 ASSEMBLY SQUARE DR",
    "City":"Somerville",
    "State":"MA",
    "Zip":2145
    }
  },
  {
    "type": "Feature",
    "geometry": {
       "type": "Point",
       "coordinates":  [ -71.080703,42.395886 ]
    },
    "properties": {
    "Address":"331 GREAT RIVER RD",
    "City":"Somerville",
    "State":"MA",
    "Zip":2145
    }
  },
  {
    "type": "Feature",
    "geometry": {
       "type": "Point",
       "coordinates":  [ -71.080703,42.395886 ]
    },
    "properties": {
    "Address":"301 GREAT RIVER RD",
    "City":"Somerville",
    "State":"MA",
    "Zip":2145
    }
  },
  {
    "type": "Feature",
    "geometry": {
       "type": "Point",
       "coordinates":  [ -71.120801,42.394445 ]
    },
    "properties": {
    "Address":"381 SUMMER ST",
    "City":"Somerville",
    "State":"MA",
    "Zip":2144
    }
  },
  {
    "type": "Feature",
    "geometry": {
       "type": "Point",
       "coordinates":  [ -71.095545,42.38818 ]
    },
    "properties": {
    "Address":"249 PEARL ST",
    "City":"Somerville",
    "State":"MA",
    "Zip":2145
    }
  },
  {
    "type": "Feature",
    "geometry": {
       "type": "Point",
       "coordinates":  [ -71.103866,42.388224 ]
    },
    "properties": {
    "Address":"156 HIGHLAND AVE",
    "City":"Somerville",
    "State":"MA",
    "Zip":2143
    }
  },
  {
    "type": "Feature",
    "geometry": {
       "type": "Point",
       "coordinates":  [ -71.084252,42.387581 ]
    },
    "properties": {
    "Address":"118-120 BROADWAY",
    "City":"Somerville",
    "State":"MA",
    "Zip":2145
    }
  },
  {
    "type": "Feature",
    "geometry": {
       "type": "Point",
       "coordinates":  [ -71.124239,42.399013 ]
    },
    "properties": {
    "Address":"89 HOLLAND ST",
    "City":"Somerville",
    "State":"MA",
    "Zip":2144
    }
  },
  {
    "type": "Feature",
    "geometry": {
       "type": "Point",
       "coordinates":  [ -71.102573,42.382398 ]
    },
    "properties": {
    "Address":"445 SOMERVILLE AVE",
    "City":"Somerville",
    "State":"MA",
    "Zip":2143
    }
  },
  {
    "type": "Feature",
    "geometry": {
       "type": "Point",
       "coordinates":  [ -71.127182,42.403274 ]
    },
    "properties": {
    "Address":"1137 BROADWAY",
    "City":"Somerville",
    "State":"MA",
    "Zip":2144
    }
  },
  {
    "type": "Feature",
    "geometry": {
       "type": "Point",
       "coordinates":  [ -71.121369,42.396839 ]
    },
    "properties": {
    "Address":"13 ELM ST",
    "City":"Somerville",
    "State":"MA",
    "Zip":2144
    }
  },
  {
    "type": "Feature",
    "geometry": {
       "type": "Point",
       "coordinates":  [ -71.117521,42.400527 ]
    },
    "properties": {
    "Address":"132 COLLEGE AVE",
    "City":"Somerville",
    "State":"MA",
    "Zip":2144
    }
  },
  {
    "type": "Feature",
    "geometry": {
       "type": "Point",
       "coordinates":  [ -71.079025,42.39367 ]
    },
    "properties": {
    "Address":"698 ASSEMBLY ROW",
    "City":"Somerville",
    "State":"MA",
    "Zip":2145
    }
  },
  {
    "type": "Feature",
    "geometry": {
       "type": "Point",
       "coordinates":  [ -71.092168,42.37807 ]
    },
    "properties": {
    "Address":"230 SOMERVILLE AVE",
    "City":"Somerville",
    "State":"MA",
    "Zip":2143
    }
  },
  {
    "type": "Feature",
    "geometry": {
       "type": "Point",
       "coordinates":  [ -71.090222,42.386592 ]
    },
    "properties": {
    "Address":"561 MCGRATH HWY",
    "City":"Somerville",
    "State":"MA",
    "Zip":2145
    }
  },
  {
    "type": "Feature",
    "geometry": {
       "type": "Point",
       "coordinates":  [ -71.092168,42.37807 ]
    },
    "properties": {
    "Address":"230 SOMERVILLE AVE",
    "City":"Somerville",
    "State":"MA",
    "Zip":2143
    }
  },
  {
    "type": "Feature",
    "geometry": {
       "type": "Point",
       "coordinates":  [ -71.105669,42.381783 ]
    },
    "properties": {
    "Address":"14 TYLER ST",
    "City":"Somerville",
    "State":"MA",
    "Zip":2143
    }
  },
  {
    "type": "Feature",
    "geometry": {
       "type": "Point",
       "coordinates":  [ -71.089273,42.374817 ]
    },
    "properties": {
    "Address":"15 WARD ST",
    "City":"Somerville",
    "State":"MA",
    "Zip":2143
    }
  },
  {
    "type": "Feature",
    "geometry": {
       "type": "Point",
       "coordinates":  [ -71.079025,42.39367 ]
    },
    "properties": {
    "Address":"500 ASSEMBLY ROW",
    "City":"Somerville",
    "State":"MA",
    "Zip":2145
    }
  },
  {
    "type": "Feature",
    "geometry": {
       "type": "Point",
       "coordinates":  [ -71.078785,42.395546 ]
    },
    "properties": {
    "Address":"100 FOLEY ST",
    "City":"Somerville",
    "State":"MA",
    "Zip":2145
    }
  },
  {
    "type": "Feature",
    "geometry": {
       "type": "Point",
       "coordinates":  [ -71.100055,42.381616 ]
    },
    "properties": {
    "Address":"379 SOMERVILLE AVE",
    "City":"Somerville",
    "State":"MA",
    "Zip":2143
    }
  },
  {
    "type": "Feature",
    "geometry": {
       "type": "Point",
       "coordinates":  [ -71.079025,42.39367 ]
    },
    "properties": {
    "Address":"661 ASSEMBLY ROW",
    "City":"Somerville",
    "State":"MA",
    "Zip":2145
    }
  },
  {
    "type": "Feature",
    "geometry": {
       "type": "Point",
       "coordinates":  [ -71.079161,42.394225 ]
    },
    "properties": {
    "Address":"320 CANAL ST",
    "City":"Somerville",
    "State":"MA",
    "Zip":2145
    }
  },
  {
    "type": "Feature",
    "geometry": {
       "type": "Point",
       "coordinates":  [ -71.079025,42.39367 ]
    },
    "properties": {
    "Address":"699 ASSEMBLY ROW",
    "City":"Somerville",
    "State":"MA",
    "Zip":2145
    }
  },
  {
    "type": "Feature",
    "geometry": {
       "type": "Point",
       "coordinates":  [ -71.081124,42.394859 ]
    },
    "properties": {
    "Address":"625 GRAND UNION BLVD",
    "City":"Somerville",
    "State":"MA",
    "Zip":2145
    }
  },
  {
    "type": "Feature",
    "geometry": {
       "type": "Point",
       "coordinates":  [ -71.121757,42.395621 ]
    },
    "properties": {
    "Address":"255 ELM ST",
    "City":"Somerville",
    "State":"MA",
    "Zip":2144
    }
  },
  {
    "type": "Feature",
    "geometry": {
       "type": "Point",
       "coordinates":  [ -71.120267,42.393084 ]
    },
    "properties": {
    "Address":"187 ELM ST",
    "City":"Somerville",
    "State":"MA",
    "Zip":2144
    }
  },
  {
    "type": "Feature",
    "geometry": {
       "type": "Point",
       "coordinates":  [ -71.08696,42.380769 ]
    },
    "properties": {
    "Address":"120 WASHINGTON ST",
    "City":"Somerville",
    "State":"MA",
    "Zip":2143
    }
  },
  {
    "type": "Feature",
    "geometry": {
       "type": "Point",
       "coordinates":  [ -71.121574,42.395268 ]
    },
    "properties": {
    "Address":"243 ELM ST",
    "City":"Somerville",
    "State":"MA",
    "Zip":2143
    }
  },
  {
    "type": "Feature",
    "geometry": {
       "type": "Point",
       "coordinates":  [ -71.105669,42.381783 ]
    },
    "properties": {
    "Address":"14 TYLER ST",
    "City":"Somerville",
    "State":"MA",
    "Zip":2143
    }
  }
]
}